COSMOS 1933             
1 18958U 88020A   26037.73942514  .00005471  00000+0  26987-3 0  9993
2 18958  82.5123 281.5330 0003294 328.8673  31.2365 15.17718553 45531
SL-3 R/B                
1 19046U 88032B   26037.85164593  .00007679  00000+0  36175-3 0  9993
2 19046  97.5152  21.2328 0025699 345.9658  14.0859 15.19506586 47420
SL-16 R/B               
1 19120U 88039B   26037.69484323 -.00000078  00000+0 -14254-4 0  9994
2 19120  71.0150 134.0887 0020858  21.7265 338.4740 14.19611671953986
COSMOS 1953             
1 19210U 88050A   26037.85088662  .00011966  00000+0  43758-3 0  9997
2 19210  82.5091 189.2412 0010522 229.7434 130.2885 15.27894239 33078
SL-8 R/B                
1 19257U 88053B   26037.79637009  .00000357  00000+0  12435-3 0  9999
2 19257  74.0477 169.4044 0020314 354.5082 113.7469 14.38897087972150
COSMOS 1975             
1 19573U 88093A   26037.81079685  .00009252  00000+0  34203-3 0  9997
2 19573  82.5222 148.6597 0010341 279.9775  80.0297 15.27519266 14693
SL-14 R/B               
1 19574U 88093B   26037.62419628  .00000569  00000+0  62597-4 0  9992
2 19574  82.5282  71.2148 0021768 137.8042 345.3903 14.85621912996423
SL-16 R/B               
1 19650U 88102B   26037.82551825  .00000113  00000+0  81054-4 0  9990
2 19650  70.9970 216.4341 0012336  52.5819 307.6425 14.16146360922520
INTERCOSMOS 24          
1 20261U 89080A   26037.74632802  .00000709  00000+0  20507-3 0  9998
2 20261  82.6069 124.5440 1188170   4.6728 356.4357 12.59516015662908
SL-14 R/B               
1 20262U 89080C   26037.42898560  .00000488  00000+0  14807-3 0  9999
2 20262  82.5941 193.2545 1229437 256.2390  89.9190 12.50456357656244
DELTA 1 R/B             
1 20323U 89089B   26037.58123640  .00000521  00000+0  13773-3 0  9992
2 20323  97.0727 249.9630 0068098 220.1315 139.4843 14.50636713891222
ARIANE 40 R/B           
1 20443U 90005H   26037.75079444  .00000366  00000+0  13016-3 0  9993
2 20443  98.3150  99.3235 0008996 301.0793  58.9512 14.39849542888358
