CCSDS_OMM_VERS = 2.0
CREATION_DATE  = 
ORIGINATOR     = 

OBJECT_NAME    = COSMOS 1933
OBJECT_ID      = 1988-020A
CENTER_NAME    = EARTH
REF_FRAME      = TEME
TIME_SYSTEM    = UTC
MEAN_ELEMENT_THEORY = SGP/SGP4

EPOCH          = 2026-02-06T17:44:46.332096
MEAN_MOTION    = 15.17718553
ECCENTRICITY   = .0003294
INCLINATION    = 82.5123
RA_OF_ASC_NODE = 281.5330
ARG_OF_PERICENTER = 328.8673
MEAN_ANOMALY   = 31.2365

EPHEMERIS_TYPE = 0
CLASSIFICATION_TYPE = U
NORAD_CAT_ID   = 18958
ELEMENT_SET_NO = 999
REV_AT_EPOCH   = 4553
BSTAR          = .26987E-3
MEAN_MOTION_DOT = .5471E-4
MEAN_MOTION_DDOT = 0

CCSDS_OMM_VERS = 2.0
CREATION_DATE  = 
ORIGINATOR     = 

OBJECT_NAME    = SL-3 R/B
OBJECT_ID      = 1988-032B
CENTER_NAME    = EARTH
REF_FRAME      = TEME
TIME_SYSTEM    = UTC
MEAN_ELEMENT_THEORY = SGP/SGP4

EPOCH          = 2026-02-06T20:26:22.208352
MEAN_MOTION    = 15.19506586
ECCENTRICITY   = .0025699
INCLINATION    = 97.5152
RA_OF_ASC_NODE = 21.2328
ARG_OF_PERICENTER = 345.9658
MEAN_ANOMALY   = 14.0859

EPHEMERIS_TYPE = 0
CLASSIFICATION_TYPE = U
NORAD_CAT_ID   = 19046
ELEMENT_SET_NO = 999
REV_AT_EPOCH   = 4742
BSTAR          = .36175E-3
MEAN_MOTION_DOT = .7679E-4
MEAN_MOTION_DDOT = 0

CCSDS_OMM_VERS = 2.0
CREATION_DATE  = 
ORIGINATOR     = 

OBJECT_NAME    = SL-16 R/B
OBJECT_ID      = 1988-039B
CENTER_NAME    = EARTH
REF_FRAME      = TEME
TIME_SYSTEM    = UTC
MEAN_ELEMENT_THEORY = SGP/SGP4

EPOCH          = 2026-02-06T16:40:34.455072
MEAN_MOTION    = 14.19611671
ECCENTRICITY   = .0020858
INCLINATION    = 71.0150
RA_OF_ASC_NODE = 134.0887
ARG_OF_PERICENTER = 21.7265
MEAN_ANOMALY   = 338.4740

EPHEMERIS_TYPE = 0
CLASSIFICATION_TYPE = U
NORAD_CAT_ID   = 19120
ELEMENT_SET_NO = 999
REV_AT_EPOCH   = 95398
BSTAR          = -.14254E-4
MEAN_MOTION_DOT = -.78E-6
MEAN_MOTION_DDOT = 0

CCSDS_OMM_VERS = 2.0
CREATION_DATE  = 
ORIGINATOR     = 

OBJECT_NAME    = COSMOS 1953
OBJECT_ID      = 1988-050A
CENTER_NAME    = EARTH
REF_FRAME      = TEME
TIME_SYSTEM    = UTC
MEAN_ELEMENT_THEORY = SGP/SGP4

EPOCH          = 2026-02-06T20:25:16.603968
MEAN_MOTION    = 15.27894239
ECCENTRICITY   = .0010522
INCLINATION    = 82.5091
RA_OF_ASC_NODE = 189.2412
ARG_OF_PERICENTER = 229.7434
MEAN_ANOMALY   = 130.2885

EPHEMERIS_TYPE = 0
CLASSIFICATION_TYPE = U
NORAD_CAT_ID   = 19210
ELEMENT_SET_NO = 999
REV_AT_EPOCH   = 3307
BSTAR          = .43758E-3
MEAN_MOTION_DOT = .11966E-3
MEAN_MOTION_DDOT = 0

CCSDS_OMM_VERS = 2.0
CREATION_DATE  = 
ORIGINATOR     = 

OBJECT_NAME    = SL-8 R/B
OBJECT_ID      = 1988-053B
CENTER_NAME    = EARTH
REF_FRAME      = TEME
TIME_SYSTEM    = UTC
MEAN_ELEMENT_THEORY = SGP/SGP4

EPOCH          = 2026-02-06T19:06:46.375776
MEAN_MOTION    = 14.38897087
ECCENTRICITY   = .0020314
INCLINATION    = 74.0477
RA_OF_ASC_NODE = 169.4044
ARG_OF_PERICENTER = 354.5082
MEAN_ANOMALY   = 113.7469

EPHEMERIS_TYPE = 0
CLASSIFICATION_TYPE = U
NORAD_CAT_ID   = 19257
ELEMENT_SET_NO = 999
REV_AT_EPOCH   = 97215
BSTAR          = .12435E-3
MEAN_MOTION_DOT = .357E-5
MEAN_MOTION_DDOT = 0

CCSDS_OMM_VERS = 2.0
CREATION_DATE  = 
ORIGINATOR     = 

OBJECT_NAME    = COSMOS 1975
OBJECT_ID      = 1988-093A
CENTER_NAME    = EARTH
REF_FRAME      = TEME
TIME_SYSTEM    = UTC
MEAN_ELEMENT_THEORY = SGP/SGP4

EPOCH          = 2026-02-06T19:27:32.847840
MEAN_MOTION    = 15.27519266
ECCENTRICITY   = .0010341
INCLINATION    = 82.5222
RA_OF_ASC_NODE = 148.6597
ARG_OF_PERICENTER = 279.9775
MEAN_ANOMALY   = 80.0297

EPHEMERIS_TYPE = 0
CLASSIFICATION_TYPE = U
NORAD_CAT_ID   = 19573
ELEMENT_SET_NO = 999
REV_AT_EPOCH   = 1469
BSTAR          = .34203E-3
MEAN_MOTION_DOT = .9252E-4
MEAN_MOTION_DDOT = 0

CCSDS_OMM_VERS = 2.0
CREATION_DATE  = 
ORIGINATOR     = 

OBJECT_NAME    = SL-14 R/B
OBJECT_ID      = 1988-093B
CENTER_NAME    = EARTH
REF_FRAME      = TEME
TIME_SYSTEM    = UTC
MEAN_ELEMENT_THEORY = SGP/SGP4

EPOCH          = 2026-02-06T14:58:50.558592
MEAN_MOTION    = 14.85621912
ECCENTRICITY   = .0021768
INCLINATION    = 82.5282
RA_OF_ASC_NODE = 71.2148
ARG_OF_PERICENTER = 137.8042
MEAN_ANOMALY   = 345.3903

EPHEMERIS_TYPE = 0
CLASSIFICATION_TYPE = U
NORAD_CAT_ID   = 19574
ELEMENT_SET_NO = 999
REV_AT_EPOCH   = 99642
BSTAR          = .62597E-4
MEAN_MOTION_DOT = .569E-5
MEAN_MOTION_DDOT = 0

CCSDS_OMM_VERS = 2.0
CREATION_DATE  = 
ORIGINATOR     = 

OBJECT_NAME    = SL-16 R/B
OBJECT_ID      = 1988-102B
CENTER_NAME    = EARTH
REF_FRAME      = TEME
TIME_SYSTEM    = UTC
MEAN_ELEMENT_THEORY = SGP/SGP4

EPOCH          = 2026-02-06T19:48:44.776800
MEAN_MOTION    = 14.16146360
ECCENTRICITY   = .0012336
INCLINATION    = 70.9970
RA_OF_ASC_NODE = 216.4341
ARG_OF_PERICENTER = 52.5819
MEAN_ANOMALY   = 307.6425

EPHEMERIS_TYPE = 0
CLASSIFICATION_TYPE = U
NORAD_CAT_ID   = 19650
ELEMENT_SET_NO = 999
REV_AT_EPOCH   = 92252
BSTAR          = .81054E-4
MEAN_MOTION_DOT = .113E-5
MEAN_MOTION_DDOT = 0

CCSDS_OMM_VERS = 2.0
CREATION_DATE  = 
ORIGINATOR     = 

OBJECT_NAME    = INTERCOSMOS 24
OBJECT_ID      = 1989-080A
CENTER_NAME    = EARTH
REF_FRAME      = TEME
TIME_SYSTEM    = UTC
MEAN_ELEMENT_THEORY = SGP/SGP4

EPOCH          = 2026-02-06T17:54:42.740928
MEAN_MOTION    = 12.59516015
ECCENTRICITY   = .118817
INCLINATION    = 82.6069
RA_OF_ASC_NODE = 124.5440
ARG_OF_PERICENTER = 4.6728
MEAN_ANOMALY   = 356.4357

EPHEMERIS_TYPE = 0
CLASSIFICATION_TYPE = U
NORAD_CAT_ID   = 20261
ELEMENT_SET_NO = 999
REV_AT_EPOCH   = 66290
BSTAR          = .20507E-3
MEAN_MOTION_DOT = .709E-5
MEAN_MOTION_DDOT = 0

CCSDS_OMM_VERS = 2.0
CREATION_DATE  = 
ORIGINATOR     = 

OBJECT_NAME    = SL-14 R/B
OBJECT_ID      = 1989-080C
CENTER_NAME    = EARTH
REF_FRAME      = TEME
TIME_SYSTEM    = UTC
MEAN_ELEMENT_THEORY = SGP/SGP4

EPOCH          = 2026-02-06T10:17:44.355840
MEAN_MOTION    = 12.50456357
ECCENTRICITY   = .12294377
INCLINATION    = 82.5941
RA_OF_ASC_NODE = 193.2545
ARG_OF_PERICENTER = 256.2390
MEAN_ANOMALY   = 89.9190

EPHEMERIS_TYPE = 0
CLASSIFICATION_TYPE = U
NORAD_CAT_ID   = 20262
ELEMENT_SET_NO = 999
REV_AT_EPOCH   = 65624
BSTAR          = .14806793E-3
MEAN_MOTION_DOT = .488E-5
MEAN_MOTION_DDOT = 0

CCSDS_OMM_VERS = 2.0
CREATION_DATE  = 
ORIGINATOR     = 

OBJECT_NAME    = DELTA 1 R/B
OBJECT_ID      = 1989-089B
CENTER_NAME    = EARTH
REF_FRAME      = TEME
TIME_SYSTEM    = UTC
MEAN_ELEMENT_THEORY = SGP/SGP4

EPOCH          = 2026-02-06T13:56:58.824960
MEAN_MOTION    = 14.50636713
ECCENTRICITY   = .0068098
INCLINATION    = 97.0727
RA_OF_ASC_NODE = 249.9630
ARG_OF_PERICENTER = 220.1315
MEAN_ANOMALY   = 139.4843

EPHEMERIS_TYPE = 0
CLASSIFICATION_TYPE = U
NORAD_CAT_ID   = 20323
ELEMENT_SET_NO = 999
REV_AT_EPOCH   = 89122
BSTAR          = .13773E-3
MEAN_MOTION_DOT = .521E-5
MEAN_MOTION_DDOT = 0

CCSDS_OMM_VERS = 2.0
CREATION_DATE  = 
ORIGINATOR     = 

OBJECT_NAME    = ARIANE 40 R/B
OBJECT_ID      = 1990-005H
CENTER_NAME    = EARTH
REF_FRAME      = TEME
TIME_SYSTEM    = UTC
MEAN_ELEMENT_THEORY = SGP/SGP4

EPOCH          = 2026-02-06T18:01:08.639616
MEAN_MOTION    = 14.39849542
ECCENTRICITY   = .0008996
INCLINATION    = 98.3150
RA_OF_ASC_NODE = 99.3235
ARG_OF_PERICENTER = 301.0793
MEAN_ANOMALY   = 58.9512

EPHEMERIS_TYPE = 0
CLASSIFICATION_TYPE = U
NORAD_CAT_ID   = 20443
ELEMENT_SET_NO = 999
REV_AT_EPOCH   = 88835
BSTAR          = .13016E-3
MEAN_MOTION_DOT = .366E-5
MEAN_MOTION_DDOT = 0

